COSMOS 2433 (720)       
1 32275U 07052A   23331.96829803 -.00000064  00000+0  00000+0 0  9999
2 32275  65.9997 347.1193 0005562 253.4361 106.5449  2.13104071125192
COSMOS 2432 (719)       
1 32276U 07052B   23332.57714882 -.00000066  00000+0  00000+0 0  9990
2 32276  66.0142 347.2094 0011266 312.5375 101.3355  2.13103288125231
COSMOS 2434 (721)       
1 32393U 07065A   23332.33568081  .00000040  00000+0  00000+0 0  9997
2 32393  64.3277 223.4212 0003668  71.1280 102.1654  2.13103088123910
COSMOS 2436 (723)       
1 32395U 07065C   23332.70193076  .00000039  00000+0  00000+0 0  9996
2 32395  64.3363 223.4713 0016897   4.5270 225.1477  2.13102703123878
COSMOS 2456 (730)       
1 36111U 09070A   23332.13474740 -.00000007  00000+0  00000+0 0  9997
2 36111  64.5271 102.8942 0001716 305.3132 231.7383  2.13098996108561
COSMOS 2457 (733)       
1 36112U 09070B   23332.63694235 -.00000005  00000+0  00000+0 0  9994
2 36112  64.5113 102.7403 0006248 155.4070 178.3647  2.13101192108571
COSMOS 2460 (732)       
1 36402U 10007C   23332.68108997 -.00000066  00000+0  00000+0 0  9995
2 36402  65.8605 345.7966 0002758 267.5054  89.5424  2.13106285106870
COSMOS 2476 (744)       
1 37867U 11064A   23332.11123622 -.00000004  00000+0  00000+0 0  9997
2 37867  64.8052 104.4543 0022255 231.1957 197.8655  2.13101646 93909
COSMOS 2477 (745)       
1 37868U 11064B   23332.72880571 -.00000001  00000+0  00000+0 0  9995
2 37868  64.8126 104.5038 0019452 231.3922 129.2851  2.13101479 93913
COSMOS 2475 (743)       
1 37869U 11064C   23332.78655941 -.00000001  00000+0  00000+0 0  9993
2 37869  64.8198 104.5149 0023522 248.8975 114.6498  2.13101708 93921
COSMOS 2485 (747)       
1 39155U 13019A   23332.43231947 -.00000002  00000+0  00000+0 0  9994
2 39155  64.9649 104.9851 0022753 227.3391 132.4391  2.13101725 82428
COSMOS 2492 (754)       
1 39620U 14012A   23332.38788110 -.00000065  00000+0  00000+0 0  9997
2 39620  65.7435 345.4126 0014392 311.6876  48.2274  2.13103145 75388
COSMOS 2500 (755)       
1 40001U 14032A   23331.63152821 -.00000063  00000+0  00000+0 0  9993
2 40001  65.6817 345.2589 0008282 220.7418 139.2364  2.13105983 73583
COSMOS 2501 (702K)      
1 40315U 14075A   23332.35181774  .00000041  00000+0  00000+0 0  9992
2 40315  63.6305 222.6999 0018397 206.2634 153.7243  2.13101250 69991
COSMOS 2514 (751)       
1 41330U 16008A   23332.33327155 -.00000065  00000+0  00000+0 0  9998
2 41330  65.4780 344.7953 0012283 222.2652 137.6771  2.13102636 60760
COSMOS 2522 (752)       
1 42939U 17055A   23332.17477253  .00000041  00000+0  00000+0 0  9997
2 42939  64.0913 223.6808 0006469 238.3852 121.6312  2.13101952 48111
COSMOS 2527 (756)       
1 43508U 18053A   23331.66408048 -.00000004  00000+0  00000+0 0  9998
2 43508  65.1252 105.1213 0008286 217.2545 142.6570  2.13102370 42400
COSMOS 2529 (757)       
1 43687U 18086A   23332.23280785  .00000040  00000+0  00000+0 0  9991
2 43687  64.3066 224.1370 0008107 266.0702  93.9162  2.13102017 39428
COSMOS 2534 (758)       
1 44299U 19030A   23332.75857113  .00000038  00000+0  00000+0 0  9990
2 44299  64.3794 224.0536 0010707 289.5303 248.0271  2.13101925 35073
COSMOS 2544 (759)       
1 44850U 19088A   23332.07716050 -.00000003  00000+0  00000+0 0  9998
2 44850  65.1119 104.9484 0012119 248.4113 111.4289  2.13102142 30851
COSMOS 2545 (760)       
1 45358U 20018A   23332.74336089 -.00000068  00000+0  00000+0 0  9992
2 45358  64.8179 344.9568 0011956 250.3779 109.5288  2.13102598 28819
COSMOS 2547 (705K)      
1 46805U 20075A   23332.46279940  .00000040  00000+0  00000+0 0  9993
2 46805  64.6072 223.6451 0006201 240.2484 119.7701  2.13102814 24055
COSMOS 2557 (706K)      
1 52984U 22075A   23331.21800682 -.00000064  00000+0  00000+0 0  9992
2 52984  64.7380 347.1603 0014019 278.3548  81.5298  2.13102037 10838
COSMOS 2559 (707K)      
1 54031U 22130A   23331.62953104 -.00000066  00000+0  00000+0 0  9994
2 54031  64.7093 347.2706 0007942 232.9072 127.0627  2.13101345  8812
COSMOS 2564 (761)       
1 54377U 22161A   23332.29152016  .00000041  00000+0  00000+0 0  9990
2 54377  64.7480 223.7191 0008010 215.3433 144.6832  2.13102188  7777
COSMOS 2569 (703K)      
1 57517U 23114A   23332.77960079 -.00000002  00000+0  00000+0 0  9995
2 57517  64.8360 104.1475 0009166 292.4564  67.4170  2.13104170  2411
